OBJECT_NAME,OBJECT_ID,EPOCH,MEAN_MOTION,ECCENTRICITY,INCLINATION,RA_OF_ASC_NODE,ARG_OF_PERICENTER,MEAN_ANOMALY,EPHEMERIS_TYPE,CLASSIFICATION_TYPE,NORAD_CAT_ID,ELEMENT_SET_NO,REV_AT_EPOCH,BSTAR,MEAN_MOTION_DOT,MEAN_MOTION_DDOT
TURKSAT 5A,2021-001A,2026-06-26T12:41:58.121952,1.00271749,.0000305,0.0176,60.0120,355.3191,80.7411,0,U,47306,999,2006,0,.165E-5,0
TIANTONG-1 3,2021-003A,2026-06-27T04:20:24.221760,1.00273982,.0003341,1.7478,339.9608,117.3740,324.5668,0,U,47321,999,2006,0,-.142E-5,0
TJS-6,2021-010A,2026-06-27T03:05:22.444800,1.00273234,.0003428,0.2245,263.4329,222.3254,14.3069,0,U,47613,999,1990,0,.55E-6,0
SBIRS GEO-5 (USA 315),2021-042A,2026-06-26T23:36:21.712032,1.00272144,.0001847,5.0899,329.2017,129.3995,264.3983,0,U,48618,999,1887,0,-.254E-5,0
FENGYUN 4B,2021-047A,2026-06-27T01:01:41.964384,1.00272834,.0005858,0.1773,78.6566,278.9113,37.7513,0,U,48808,999,1866,0,-.319E-5,0
SXM-8,2021-049A,2026-06-27T03:32:48.814080,1.00270833,.0005461,0.0170,16.0075,19.0812,208.2293,0,U,48838,999,1868,0,-.194E-5,0
TIANLIAN 1-05,2021-063A,2026-06-27T02:19:11.765280,1.00273702,.0000835,1.6190,80.6346,13.5404,232.6550,0,U,49011,999,1817,0,.118E-5,0
STAR ONE D2,2021-069A,2026-06-27T04:25:38.698752,1.00268979,.0002071,0.0154,351.4608,131.5741,148.5837,0,U,49055,999,1804,0,0,0
EUTELSAT QUANTUM,2021-069B,2026-06-27T04:10:40.156032,1.00270497,.0002676,0.0126,338.8294,115.6040,291.2173,0,U,49056,999,1802,0,.138E-5,0
ZHONGXING-2E,2021-071A,2026-06-27T02:42:24.540192,1.00270880,.0002098,0.0432,151.4374,340.4204,282.0449,0,U,49062,999,1813,0,-.28E-5,0
TJS-7,2021-077A,2026-06-27T05:11:20.421312,1.00274736,.0003731,0.3300,264.7041,115.1624,233.8460,0,U,49115,999,964,0,-.112E-5,0
CHINASAT 9B,2021-080A,2026-06-27T02:43:24.443904,1.00271128,.0002456,0.0145,292.7448,182.3111,302.4330,0,U,49125,999,1774,0,-.301E-5,0
SHIJIAN-21 (SJ-21),2021-094A,2026-06-26T22:53:25.158624,1.00266807,.00495323,5.1356,61.1276,168.0512,157.1808,0,U,49330,999,545,0,-.341E-5,0
SES-17,2021-095A,2026-06-27T04:25:38.698752,1.00271164,.0001348,0.0244,40.4143,74.2632,159.9340,0,U,49332,999,1795,0,-.261E-5,0
SYRACUSE 4A,2021-095B,2026-06-27T04:10:02.713728,1.00270000,.000151,0.0286,23.6198,63.8852,295.8018,0,U,49333,999,1804,0,0,0
QZS-1R (MICHIBIKI-1R),2021-096A,2026-06-26T14:51:13.875840,1.00253032,.0755635,37.4804,79.4425,271.9684,279.4688,0,U,49336,999,1710,0,-.312E-5,0
ZHONGXING-1D,2021-114A,2026-06-27T01:08:56.270400,1.00272353,.0000355,0.0444,166.9869,355.4555,260.1414,0,U,49505,999,1691,0,-.324E-5,0
STPSAT-6,2021-118A,2026-06-26T15:26:37.918752,1.00270723,.00010721,0.3452,85.3394,271.2626,38.1316,0,U,49817,999,1666,0,-.34E-6,0
EXPRESS AMU-7,2021-123A,2026-06-27T04:38:08.829600,1.00271789,.0000254,0.0162,323.3125,70.9729,95.5624,0,U,50001,999,1664,0,-.231E-5,0
EXPRESS AMU-3,2021-123B,2026-06-25T22:52:04.605312,1.00270643,.0000317,0.0216,329.0934,357.0236,33.8810,0,U,50002,999,712,0,0,0
TIANLIAN 2-02,2021-124A,2026-06-27T03:53:38.813856,1.00272709,.0000859,0.8277,85.9889,191.6969,226.9681,0,U,50005,999,1672,0,-.3E-7,0
TURKSAT 5B,2021-126A,2026-06-27T01:17:38.873760,1.00273851,.0003059,0.0675,341.6246,23.3365,331.6114,0,U,50212,999,1639,0,.158E-5,0
INMARSAT 6-F1,2021-128A,2026-06-27T04:20:54.174048,1.00268465,.0000281,0.0161,324.4222,84.9505,14.9066,0,U,50319,999,1635,0,-.16E-5,0
SHIYAN-12 01 (SY-12 01),2021-129A,2026-06-26T16:13:25.268160,1.00043795,.000318,3.6986,79.7881,294.2392,196.3577,0,U,50321,999,1659,0,.132E-5,0
SHIYAN-12 02 (SY-12 02),2021-129B,2026-06-26T17:25:38.477856,1.00487205,.0003081,3.6982,79.7912,56.6569,136.1595,0,U,50322,999,1659,0,-.304E-5,0
TJS-9,2021-135A,2026-06-26T21:45:34.230816,1.00271765,.0003858,0.0316,204.9564,214.2003,319.4974,0,U,50574,999,1652,0,-.287E-5,0
USA 324,2022-006A,2026-06-06T02:06:38.886912,1.00289779,.000284,0.7690,83.2777,165.6787,110.1567,0,U,51280,999,1602,0,-.58E-6,0
GOES 18,2022-021A,2026-06-26T22:09:54.396864,1.00273321,.0000647,0.0075,87.6581,38.4096,344.4465,0,U,51850,999,669,0,.108E-5,0
ZHONGXING-6D,2022-038A,2026-06-26T21:19:46.544160,1.00274505,.0000254,0.0086,53.6812,138.2308,168.0835,0,U,52255,999,1551,0,-.342E-5,0
NILESAT 301,2022-061A,2026-06-27T03:55:04.151136,1.00272820,.0004876,0.0450,353.7110,66.5801,266.7522,0,U,52817,999,1483,0,-.46E-6,0
CMS-02 (GSAT-24),2022-067A,2026-06-27T02:38:09.947040,1.00271600,.0001614,0.0379,253.1237,127.5339,17.1215,0,U,52903,999,1470,0,-.153E-5,0
MEASAT 3D,2022-067B,2026-06-27T02:40:32.219328,1.00272015,.0000761,0.0427,311.5917,102.9916,352.2884,0,U,52904,999,1474,0,-.23E-5,0
SES-22,2022-071A,2026-06-27T03:17:28.785408,1.00270551,.0001337,0.0111,317.6293,126.4072,101.5786,0,U,52933,999,762,0,.116E-5,0
WFOV (USA 332),2022-073A,2026-06-26T18:15:06.681600,1.00270865,.00017585,3.7351,78.4130,261.7110,327.8097,0,U,52940,999,1446,0,-.354E-5,0
TIANLIAN 2-03,2022-078A,2026-06-27T04:10:38.644032,1.00271363,.0001088,0.6960,77.2180,338.7619,292.5230,0,U,53100,999,1464,0,.83E-6,0
SBIRS GEO-6 (USA 336),2022-092A,2026-06-26T23:28:44.389056,1.00271850,.0002185,3.2410,317.6544,130.8635,317.7668,0,U,53355,999,1433,0,-.277E-5,0
EUTELSAT KONNECT VHTS,2022-110A,2026-06-27T03:57:48.888288,1.00270163,.0002906,0.0630,99.5379,340.2333,257.6742,0,U,53765,999,693,0,.28E-6,0
ZHONGXING-1E,2022-112A,2026-06-27T04:20:16.734336,1.00272037,.0000204,0.0131,119.3548,210.6280,91.8005,0,U,53813,999,1394,0,-.138E-5,0
SES-20,2022-123A,2026-06-27T03:43:38.676864,1.00272567,.000205,0.0186,55.4238,34.1577,138.4956,0,U,53960,999,1363,0,-.9E-6,0
SES-21,2022-123B,2026-06-27T03:19:36.081120,1.00268122,.0000948,0.0390,19.9630,76.2307,98.0383,0,U,53961,999,731,0,0,0
GALAXY 33 (G-33),2022-128A,2026-06-27T05:37:52.095936,1.00271665,.0002077,0.0045,359.8968,92.0496,134.8665,0,U,54026,999,1384,0,.91E-6,0
GALAXY 34 (G-34),2022-128B,2026-06-27T02:37:38.764416,1.00267712,.0001949,0.0106,40.0248,59.0162,86.5883,0,U,54027,999,1401,0,.71E-6,0
ANGOSAT 2,2022-131A,2026-06-25T22:58:29.455968,1.00273515,.00007206,0.0307,103.2080,356.0057,182.4991,0,U,54033,999,1356,0,.146E-5,0
EUTELSAT HOTBIRD 13F,2022-134A,2026-06-27T01:33:38.764800,1.00272929,.0001794,0.0442,294.9090,73.4867,303.2161,0,U,54048,999,1347,0,.99E-6,0
LDPE-2,2022-144A,2026-06-26T14:37:17.025312,1.00537609,.00020727,5.6354,63.5782,92.4698,189.4405,0,U,54219,999,1193,0,.117E-5,0
EUTELSAT HOTBIRD 13G,2022-146A,2026-06-26T12:36:57.976128,1.00270897,.0002041,0.0522,212.2213,321.3793,303.2805,0,U,54225,999,756,0,.98E-6,0
ZHONGXING-19,2022-148A,2026-06-27T02:52:38.604864,1.00272740,.0002861,0.0328,79.0274,35.1320,7.4419,0,U,54230,999,1348,0,-.7E-6,0
GALAXY 31 (G-31),2022-153A,2026-06-27T02:29:38.580864,1.00270011,.0001659,0.0202,25.5719,75.5418,90.5120,0,U,54243,999,723,0,0,0
GALAXY 32 (G-32),2022-153B,2026-06-27T03:31:11.468928,1.00271923,.000207,0.0132,33.1835,14.2142,189.6632,0,U,54244,999,1324,0,-.163E-5,0
EUTELSAT 10B,2022-157A,2026-06-27T03:59:56.184000,1.00261625,.0001248,0.0634,98.9691,338.7035,267.5537,0,U,54259,999,1312,0,.78E-6,0
GALAXY 35 (G-35),2022-170A,2026-06-27T04:41:38.568192,1.00269512,.0002229,0.0194,14.7684,80.8747,156.9672,0,U,54741,999,1299,0,0,0
GALAXY 36 (G-36),2022-170B,2026-06-27T03:31:41.422080,1.00271496,.0002887,0.0347,120.3355,328.9772,149.8739,0,U,54742,999,1287,0,-.174E-5,0
METEOSAT-12 (MTG-I1),2022-170C,2026-06-27T03:57:03.959424,1.00275485,.0003658,0.7492,24.5536,71.9230,237.7437,0,U,54743,999,1307,0,.4E-7,0
SHIJIAN-23 (SJ-23),2023-002A,2026-06-26T17:09:38.585952,1.00085853,.0003708,3.7417,78.2002,279.5981,316.2154,0,U,55131,999,1260,0,-.287E-5,0
APSTAR-6E,2023-005A,2026-06-27T01:09:56.174112,1.00269291,.0000417,0.0335,251.2211,290.2474,245.1730,0,U,55239,999,1878,0,-.306E-5,0
USA 342,2023-008A,2026-06-25T07:07:38.771328,1.00268501,.0000253,0.0025,336.7217,165.3803,262.0787,0,U,55263,999,1259,0,0,0
LDPE-3A,2023-008B,2026-06-27T03:14:29.070816,0.99148738,.0001506,2.3734,81.5520,51.5140,41.4727,0,U,55264,999,1191,0,.47E-6,0
ELEKTRO-L 4,2023-016A,2026-06-26T18:37:16.908096,1.00271408,.0000995,0.0836,149.1708,32.9908,177.8339,0,U,55506,999,1243,0,-.47E-6,0
AMAZONAS NEXUS,2023-017A,2026-06-27T03:11:38.918976,1.00271188,.0005174,0.0360,37.5201,37.0586,187.5808,0,U,55508,999,714,0,-.271E-5,0
ZHONGXING-26,2023-023A,2026-06-26T06:18:12.845088,1.00274356,.0003378,0.0690,71.1877,21.9123,40.9482,0,U,55686,999,1232,0,-.342E-5,0
LUCH-5X (OLYMP-K 2),2023-031A,2026-06-26T16:16:10.005312,1.00270071,.0001019,0.0326,81.1499,155.0923,344.5794,0,U,55841,999,1203,0,.45E-6,0
GAOFEN-13 02,2023-036A,2026-06-26T21:48:48.920256,1.00269362,.0003754,1.0222,2.3752,339.6199,48.4723,0,U,55912,999,1219,0,-.208E-5,0
SES-18,2023-038A,2026-06-27T03:43:38.676864,1.00272263,.0000613,0.0351,280.0987,222.7289,85.2484,0,U,55970,999,1220,0,-.89E-6,0
SES-19,2023-038B,2026-06-27T05:37:37.808832,1.00272756,.0001999,0.0131,331.1810,126.5231,127.1353,0,U,55971,999,1219,0,.99E-6,0
INTELSAT 40E (IS-40E),2023-052A,2026-06-27T04:41:38.568192,1.00272233,.0002415,0.0146,65.2023,60.5216,128.9968,0,U,56174,999,1192,0,-.163E-5,0
VIASAT-3 F1,2023-060A,2026-06-26T22:23:46.978368,1.00267045,.000108,0.0222,3.7414,106.2923,51.9860,0,U,56370,999,1153,0,0,0
ARCTURUS,2023-060B,2026-06-26T21:28:35.858208,1.00599177,.0000384,2.7990,79.8193,207.4908,27.3984,0,U,56371,999,1155,0,-.176E-5,0
GS-1,2023-060C,2026-06-25T21:34:47.877600,1.00272191,.00037625,2.7474,79.7328,280.4751,326.9793,0,U,56372,999,762,0,-.216E-5,0
BEIDOU-3 G4,2023-066A,2026-06-26T23:29:06.853056,1.00271118,.0004817,0.4758,334.0149,175.4488,257.9658,0,U,56564,999,1149,0,-.269E-5,0
ARABSAT-7B (BADR-8),2023-075A,2026-06-27T04:04:33.242016,1.00270349,.0004152,0.0740,27.8418,3.8076,330.7631,0,U,56757,999,1121,0,.156E-5,0
NVS-01 (IRNSS-1J),2023-076A,2026-06-27T01:08:41.292960,1.00274773,.0002813,2.1430,243.8939,12.4506,165.5347,0,U,56759,999,1121,0,-.321E-5,0
NUSANTARA TIGA (SATRIA),2023-086A,2026-06-26T23:30:44.198208,1.00269617,.0002753,0.0359,358.7002,346.9227,68.1605,0,U,57045,999,985,0,-.223E-5,0
